STARLINK-36724          
1 67914U 26036L   26079.16668981  .00065953  00000+0  11227-2 0  9995
2 67914  43.0008 186.7424 0001385 279.3485 196.2349 15.50526552  5332
STARLINK-36723          
1 67915U 26036M   26079.16668981  .00012471  00000+0  21812-3 0  9995
2 67915  43.0000 186.6634 0001800 277.5152 230.1747 15.50571970  5334
STARLINK-36721          
1 67916U 26036N   26079.16668981 -.00433841  00000+0 -77632-2 0  9996
2 67916  43.0007 186.6403 0001511 268.7870 248.3791 15.50734769  5331
STARLINK-36722          
1 67917U 26036P   26079.16668981 -.01568242  00000+0 -28254-1 0  9997
2 67917  43.0002 186.4227 0001458 267.2404 337.9699 15.51917427  5333
STARLINK-36341          
1 67918U 26036Q   26079.00002315 -.00110510  00000+0 -19017-2 0  9992
2 67918  43.0012 188.5503 0001472 266.4347  19.8654 15.50620389  5309
STARLINK-36663          
1 67919U 26036R   26079.16668981 -.01383120  00000+0 -25909-1 0  9993
2 67919  43.0005 186.5998 0001263 293.6818 239.7522 15.50952890  5336
STARLINK-36375          
1 67920U 26036S   26079.16668981 -.01888034  00000+0 -38659-1 0  9995
2 67920  43.0004 186.9727 0002019 263.1468 118.6140 15.48408587  5331
STARLINK-36405          
1 67921U 26036T   26079.00002315 -.00108155  00000+0 -18606-2 0  9991
2 67921  43.0010 188.5148 0001979 271.6034  28.9450 15.50617847  5309
STARLINK-36383          
1 67922U 26036U   26079.30474562  .00305058  00000+0  13884-2 0  9994
2 67922  42.9975 184.5602 0001519 212.1417 147.9362 15.82206214  5350
STARLINK-36406          
1 67923U 26036V   26078.70866510  .00076862  00000+0  13009-2 0  9993
2 67923  42.9996 190.4955 0002822 273.5571  86.4967 15.50624370  5238
STARLINK-36714          
1 67924U 26036W   26079.16668981  .00031186  00000+0  53568-3 0  9992
2 67924  43.0008 186.8846 0001604 278.3398 138.8620 15.50558427  5338
STARLINK-36726          
1 67925U 26036X   26079.00002314 -.00106842  00000+0 -18380-2 0  9994
2 67925  43.0012 188.4870 0001474 267.9339  43.4460 15.50613406  5302
STARLINK-36758          
1 67926U 26036Y   26079.16668981  .00069262  00000+0  11780-2 0  9999
2 67926  43.0005 187.0335 0001723 273.2387  83.3465 15.50530987  5339
STARLINK-36728          
1 67927U 26036Z   26079.16668981  .00080109  00000+0  13578-2 0  9990
2 67927  43.0006 186.7835 0001743 305.0417 152.8250 15.50569907  5330
STARLINK-36771          
1 67928U 26036AA  26079.16668981  .00066962  00000+0  11396-2 0  9998
2 67928  43.0006 186.9111 0001622 261.8142 144.2949 15.50526966  5338
STARLINK-36809          
1 67929U 26036AB  26079.16668981  .00065215  00000+0  11099-2 0  9999
2 67929  43.0006 186.8879 0001873 248.8628 166.4307 15.50536763  5331
