[{"OBJECT_NAME":"STARLINK-36724","OBJECT_ID":"2026-036L","EPOCH":"2026-03-20T04:00:01.999584","MEAN_MOTION":15.50526552,"ECCENTRICITY":0.00013851,"INCLINATION":43.0008,"RA_OF_ASC_NODE":186.7424,"ARG_OF_PERICENTER":279.3485,"MEAN_ANOMALY":196.2349,"EPHEMERIS_TYPE":0,"CLASSIFICATION_TYPE":"U","NORAD_CAT_ID":67914,"ELEMENT_SET_NO":999,"REV_AT_EPOCH":533,"BSTAR":0.001122674,"MEAN_MOTION_DOT":0.00065953,"MEAN_MOTION_DDOT":0},{"OBJECT_NAME":"STARLINK-36723","OBJECT_ID":"2026-036M","EPOCH":"2026-03-20T04:00:01.999584","MEAN_MOTION":15.5057197,"ECCENTRICITY":0.00018001,"INCLINATION":43,"RA_OF_ASC_NODE":186.6634,"ARG_OF_PERICENTER":277.5152,"MEAN_ANOMALY":230.1747,"EPHEMERIS_TYPE":0,"CLASSIFICATION_TYPE":"U","NORAD_CAT_ID":67915,"ELEMENT_SET_NO":999,"REV_AT_EPOCH":533,"BSTAR":0.00021811804,"MEAN_MOTION_DOT":0.00012471,"MEAN_MOTION_DDOT":0},{"OBJECT_NAME":"STARLINK-36721","OBJECT_ID":"2026-036N","EPOCH":"2026-03-20T04:00:01.999584","MEAN_MOTION":15.50734769,"ECCENTRICITY":0.00015117,"INCLINATION":43.0007,"RA_OF_ASC_NODE":186.6403,"ARG_OF_PERICENTER":268.787,"MEAN_ANOMALY":248.3791,"EPHEMERIS_TYPE":0,"CLASSIFICATION_TYPE":"U","NORAD_CAT_ID":67916,"ELEMENT_SET_NO":999,"REV_AT_EPOCH":533,"BSTAR":-0.0077632083,"MEAN_MOTION_DOT":-0.00433841,"MEAN_MOTION_DDOT":0},{"OBJECT_NAME":"STARLINK-36722","OBJECT_ID":"2026-036P","EPOCH":"2026-03-20T04:00:01.999584","MEAN_MOTION":15.51917427,"ECCENTRICITY":0.00014584,"INCLINATION":43.0002,"RA_OF_ASC_NODE":186.4227,"ARG_OF_PERICENTER":267.2404,"MEAN_ANOMALY":337.9699,"EPHEMERIS_TYPE":0,"CLASSIFICATION_TYPE":"U","NORAD_CAT_ID":67917,"ELEMENT_SET_NO":999,"REV_AT_EPOCH":533,"BSTAR":-0.028253775,"MEAN_MOTION_DOT":-0.01568242,"MEAN_MOTION_DDOT":0},{"OBJECT_NAME":"STARLINK-36341","OBJECT_ID":"2026-036Q","EPOCH":"2026-03-20T00:00:02.000160","MEAN_MOTION":15.50620389,"ECCENTRICITY":0.00014721,"INCLINATION":43.0012,"RA_OF_ASC_NODE":188.5503,"ARG_OF_PERICENTER":266.4347,"MEAN_ANOMALY":19.8654,"EPHEMERIS_TYPE":0,"CLASSIFICATION_TYPE":"U","NORAD_CAT_ID":67918,"ELEMENT_SET_NO":999,"REV_AT_EPOCH":530,"BSTAR":-0.0019017343,"MEAN_MOTION_DOT":-0.0011051,"MEAN_MOTION_DDOT":0},{"OBJECT_NAME":"STARLINK-36663","OBJECT_ID":"2026-036R","EPOCH":"2026-03-20T04:00:01.999584","MEAN_MOTION":15.5095289,"ECCENTRICITY":0.00012639,"INCLINATION":43.0005,"RA_OF_ASC_NODE":186.5998,"ARG_OF_PERICENTER":293.6818,"MEAN_ANOMALY":239.7522,"EPHEMERIS_TYPE":0,"CLASSIFICATION_TYPE":"U","NORAD_CAT_ID":67919,"ELEMENT_SET_NO":999,"REV_AT_EPOCH":533,"BSTAR":-0.025908984,"MEAN_MOTION_DOT":-0.0138312,"MEAN_MOTION_DDOT":0},{"OBJECT_NAME":"STARLINK-36375","OBJECT_ID":"2026-036S","EPOCH":"2026-03-20T04:00:01.999584","MEAN_MOTION":15.48408587,"ECCENTRICITY":0.0002019,"INCLINATION":43.0004,"RA_OF_ASC_NODE":186.9727,"ARG_OF_PERICENTER":263.1468,"MEAN_ANOMALY":118.614,"EPHEMERIS_TYPE":0,"CLASSIFICATION_TYPE":"U","NORAD_CAT_ID":67920,"ELEMENT_SET_NO":999,"REV_AT_EPOCH":533,"BSTAR":-0.03865938,"MEAN_MOTION_DOT":-0.01888034,"MEAN_MOTION_DDOT":0},{"OBJECT_NAME":"STARLINK-36405","OBJECT_ID":"2026-036T","EPOCH":"2026-03-20T00:00:02.000160","MEAN_MOTION":15.50617847,"ECCENTRICITY":0.00019795,"INCLINATION":43.001,"RA_OF_ASC_NODE":188.5148,"ARG_OF_PERICENTER":271.6034,"MEAN_ANOMALY":28.945,"EPHEMERIS_TYPE":0,"CLASSIFICATION_TYPE":"U","NORAD_CAT_ID":67921,"ELEMENT_SET_NO":999,"REV_AT_EPOCH":530,"BSTAR":-0.0018606023,"MEAN_MOTION_DOT":-0.00108155,"MEAN_MOTION_DDOT":0},{"OBJECT_NAME":"STARLINK-36383","OBJECT_ID":"2026-036U","EPOCH":"2026-03-20T07:18:50.021568","MEAN_MOTION":15.82206214,"ECCENTRICITY":0.0001519,"INCLINATION":42.9975,"RA_OF_ASC_NODE":184.5602,"ARG_OF_PERICENTER":212.1417,"MEAN_ANOMALY":147.9362,"EPHEMERIS_TYPE":0,"CLASSIFICATION_TYPE":"U","NORAD_CAT_ID":67922,"ELEMENT_SET_NO":999,"REV_AT_EPOCH":535,"BSTAR":0.0013884242,"MEAN_MOTION_DOT":0.00305058,"MEAN_MOTION_DDOT":0},{"OBJECT_NAME":"STARLINK-36406","OBJECT_ID":"2026-036V","EPOCH":"2026-03-19T17:00:28.664640","MEAN_MOTION":15.5062437,"ECCENTRICITY":0.0002822,"INCLINATION":42.9996,"RA_OF_ASC_NODE":190.4955,"ARG_OF_PERICENTER":273.5571,"MEAN_ANOMALY":86.4967,"EPHEMERIS_TYPE":0,"CLASSIFICATION_TYPE":"U","NORAD_CAT_ID":67923,"ELEMENT_SET_NO":999,"REV_AT_EPOCH":523,"BSTAR":0.001300949,"MEAN_MOTION_DOT":0.00076862,"MEAN_MOTION_DDOT":0},{"OBJECT_NAME":"STARLINK-36714","OBJECT_ID":"2026-036W","EPOCH":"2026-03-20T04:00:01.999584","MEAN_MOTION":15.50558427,"ECCENTRICITY":0.00016045,"INCLINATION":43.0008,"RA_OF_ASC_NODE":186.8846,"ARG_OF_PERICENTER":278.3398,"MEAN_ANOMALY":138.862,"EPHEMERIS_TYPE":0,"CLASSIFICATION_TYPE":"U","NORAD_CAT_ID":67924,"ELEMENT_SET_NO":999,"REV_AT_EPOCH":533,"BSTAR":0.00053568229,"MEAN_MOTION_DOT":0.00031186,"MEAN_MOTION_DDOT":0},{"OBJECT_NAME":"STARLINK-36726","OBJECT_ID":"2026-036X","EPOCH":"2026-03-20T00:00:01.999296","MEAN_MOTION":15.50613406,"ECCENTRICITY":0.0001474,"INCLINATION":43.0012,"RA_OF_ASC_NODE":188.487,"ARG_OF_PERICENTER":267.9339,"MEAN_ANOMALY":43.446,"EPHEMERIS_TYPE":0,"CLASSIFICATION_TYPE":"U","NORAD_CAT_ID":67925,"ELEMENT_SET_NO":999,"REV_AT_EPOCH":530,"BSTAR":-0.001838,"MEAN_MOTION_DOT":-0.00106842,"MEAN_MOTION_DDOT":0},{"OBJECT_NAME":"STARLINK-36758","OBJECT_ID":"2026-036Y","EPOCH":"2026-03-20T04:00:01.999584","MEAN_MOTION":15.50530987,"ECCENTRICITY":0.00017235,"INCLINATION":43.0005,"RA_OF_ASC_NODE":187.0335,"ARG_OF_PERICENTER":273.2387,"MEAN_ANOMALY":83.3465,"EPHEMERIS_TYPE":0,"CLASSIFICATION_TYPE":"U","NORAD_CAT_ID":67926,"ELEMENT_SET_NO":999,"REV_AT_EPOCH":533,"BSTAR":0.0011780139,"MEAN_MOTION_DOT":0.00069262,"MEAN_MOTION_DDOT":0},{"OBJECT_NAME":"STARLINK-36728","OBJECT_ID":"2026-036Z","EPOCH":"2026-03-20T04:00:01.999584","MEAN_MOTION":15.50569907,"ECCENTRICITY":0.00017435,"INCLINATION":43.0006,"RA_OF_ASC_NODE":186.7835,"ARG_OF_PERICENTER":305.0417,"MEAN_ANOMALY":152.825,"EPHEMERIS_TYPE":0,"CLASSIFICATION_TYPE":"U","NORAD_CAT_ID":67927,"ELEMENT_SET_NO":999,"REV_AT_EPOCH":533,"BSTAR":0.0013578152,"MEAN_MOTION_DOT":0.00080109,"MEAN_MOTION_DDOT":0},{"OBJECT_NAME":"STARLINK-36771","OBJECT_ID":"2026-036AA","EPOCH":"2026-03-20T04:00:01.999584","MEAN_MOTION":15.50526966,"ECCENTRICITY":0.00016229,"INCLINATION":43.0006,"RA_OF_ASC_NODE":186.9111,"ARG_OF_PERICENTER":261.8142,"MEAN_ANOMALY":144.2949,"EPHEMERIS_TYPE":0,"CLASSIFICATION_TYPE":"U","NORAD_CAT_ID":67928,"ELEMENT_SET_NO":999,"REV_AT_EPOCH":533,"BSTAR":0.001139587,"MEAN_MOTION_DOT":0.00066962,"MEAN_MOTION_DDOT":0},{"OBJECT_NAME":"STARLINK-36809","OBJECT_ID":"2026-036AB","EPOCH":"2026-03-20T04:00:01.999584","MEAN_MOTION":15.50536763,"ECCENTRICITY":0.00018732,"INCLINATION":43.0006,"RA_OF_ASC_NODE":186.8879,"ARG_OF_PERICENTER":248.8628,"MEAN_ANOMALY":166.4307,"EPHEMERIS_TYPE":0,"CLASSIFICATION_TYPE":"U","NORAD_CAT_ID":67929,"ELEMENT_SET_NO":999,"REV_AT_EPOCH":533,"BSTAR":0.0011098523,"MEAN_MOTION_DOT":0.00065215,"MEAN_MOTION_DDOT":0}]
